TURKSAT 4B              
1 40984U 15060A   17345.63741683  .00000108  00000-0  00000-0 0  9994
2 40984   0.0370  88.7161 0002110 178.0072  93.2577  1.00272563  7946
